NORAD_CAT_ID,OBJECT_NAME,OBJECT_TYPE,EPOCH,MEAN_MOTION,ECCENTRICITY,INCLINATION,RA_OF_ASC_NODE,ARG_OF_PERICENTER,MEAN_ANOMALY,BSTAR,MEAN_MOTION_DOT,MEAN_MOTION_DDOT,TLE_LINE0,TLE_LINE1,TLE_LINE2,SEMIMAJOR_AXIS,PERIOD,APOGEE,PERIGEE,DECAYED
53720.0,STARLINK-4642,PAYLOAD,2023-09-11 14:16:42,15.08838659,0.0001279,53.2198,19.4506,89.3006,270.8132,4.6921e-05,4.59e-06,0.0,0 STARLINK-4642,1 53720U 22107W   23254.59493391  .00000459  00000-0  46921-4 0  9992,2 53720  53.2198  19.4506 0001279  89.3006 270.8132 15.08838659 57027,6917.884,95.438,540.634,538.865,0.0
53720.0,STARLINK-4642,PAYLOAD,2023-09-11 17:27:28,15.08843181,0.0001267,53.2202,18.8565,91.7223,268.3914,0.0001105,1.471e-05,0.0,0 STARLINK-4642,1 53720U 22107W   23254.72740926  .00001471  00000-0  11050-3 0  9995,2 53720  53.2202  18.8565 0001267  91.7223 268.3914 15.08843181 56582,6917.871,95.437,540.612,538.859,0.0
53720.0,STARLINK-4642,PAYLOAD,2023-09-12 12:32:05,15.08846052,0.0001283,53.2202,15.2876,89.8931,270.2208,5.6484e-05,6.11e-06,0.0,0 STARLINK-4642,1 53720U 22107W   23255.52228938  .00000611  00000-0  56484-4 0  9994,2 53720  53.2202  15.2876 0001283  89.8931 270.2208 15.08846052 57163,6917.862,95.437,540.614,538.839,0.0
53720.0,STARLINK-4642,PAYLOAD,2023-09-12 15:42:51,15.08850464,0.0001336,53.2199,14.6926,86.9276,273.1869,8.044e-05,9.93e-06,0.0,0 STARLINK-4642,1 53720U 22107W   23255.65476513  .00000993  00000-0  80440-4 0  9994,2 53720  53.2199  14.6926 0001336  86.9276 273.1869 15.08850464 57185,6917.848,95.437,540.638,538.789,0.0
53720.0,STARLINK-4642,PAYLOAD,2023-09-13 01:15:10,15.08851476,0.0001278,53.2197,12.9081,88.3571,271.7568,7.5258e-05,9.1e-06,0.0,0 STARLINK-4642,1 53720U 22107W   23256.05220257  .00000910  00000-0  75258-4 0  9991,2 53720  53.2197  12.9081 0001278  88.3571 271.7568 15.08851476 56784,6917.845,95.437,540.594,538.826,0.0
53720.0,STARLINK-4642,PAYLOAD,2023-09-13 12:22:52,15.08849187,0.0001265,53.2196,10.8267,92.4221,267.6916,8.1506e-05,1.01e-05,0.0,0 STARLINK-4642,1 53720U 22107W   23256.51588442  .00001010  00000-0  81506-4 0  9990,2 53720  53.2196  10.8267 0001265  92.4221 267.6916 15.08849187 57317,6917.852,95.437,540.592,538.842,0.0
53720.0,STARLINK-4642,PAYLOAD,2023-09-13 17:09:01,15.08856685,0.000138,53.2204,9.9305,99.194,260.9208,0.00013496,1.862e-05,0.0,0 STARLINK-4642,1 53720U 22107W   23256.71459667  .00001862  00000-0  13496-3 0  9995,2 53720  53.2204   9.9305 0001380  99.1940 260.9208 15.08856685 57343,6917.829,95.436,540.649,538.74,0.0
53720.0,STARLINK-4642,PAYLOAD,2023-09-14 01:05:59,15.08828574,0.00019,53.2197,8.4492,75.8586,284.2617,-6.6441e-05,-1.345e-05,0.0,0 STARLINK-4642,1 53720U 22107W   23257.04582295 -.00001345  00000-0 -66441-4 0  9993,2 53720  53.2197   8.4492 0001900  75.8586 284.2617 15.08828574 56933,6917.915,95.438,541.095,538.466,0.0
53720.0,STARLINK-4642,PAYLOAD,2023-09-14 12:13:41,15.08822676,0.0001424,53.2202,6.3673,88.5071,271.6084,-0.00011435,-2.106e-05,0.0,0 STARLINK-4642,1 53720U 22107W   23257.50951036 -.00002106  00000-0 -11435-3 0  9995,2 53720  53.2202   6.3673 0001424  88.5071 271.6084 15.08822676 57463,6917.933,95.439,540.783,538.813,0.0
53720.0,STARLINK-4642,PAYLOAD,2023-09-14 13:49:04,15.08827479,0.0001358,53.2201,6.0683,88.0433,272.0715,-0.00016769,-2.955e-05,0.0,0 STARLINK-4642,1 53720U 22107W   23257.57574906 -.00002955  00000-0 -16769-3 0  9996,2 53720  53.2201   6.0683 0001358  88.0433 272.0715 15.08827479 57476,6917.919,95.438,540.723,538.844,0.0
53720.0,STARLINK-4642,PAYLOAD,2023-09-15 10:29:03,15.08852454,0.0001495,53.2203,2.1993,105.9122,254.2035,0.00015181,2.13e-05,0.0,0 STARLINK-4642,1 53720U 22107W   23258.43684837  .00002130  00000-0  15181-3 0  9997,2 53720  53.2203   2.1993 0001495 105.9122 254.2035 15.08852454 57147,6917.842,95.437,540.742,538.673,0.0
53720.0,STARLINK-4642,PAYLOAD,2023-09-15 13:39:50,15.08849357,0.0001302,53.2194,1.608,91.3193,268.7948,0.00017668,2.526e-05,0.0,0 STARLINK-4642,1 53720U 22107W   23258.56933582  .00002526  00000-0  17668-3 0  9996,2 53720  53.2194   1.6080 0001302  91.3193 268.7948 15.08849357 57624,6917.852,95.437,540.617,538.816,0.0
53720.0,STARLINK-4642,PAYLOAD,2023-09-16 10:19:52,15.0883512,0.0001349,53.2187,357.7433,78.997,281.1174,0.00034379,5.187e-05,0.0,0 STARLINK-4642,1 53720U 22107W   23259.43046633  .00005187  00000-0  34379-3 0  9999,2 53720  53.2187 357.7433 0001349  78.9970 281.1174 15.08835120 57294,6917.895,95.438,540.694,538.827,0.0
53720.0,STARLINK-4642,PAYLOAD,2023-09-16 11:55:15,15.08837793,0.0001292,53.2191,357.4458,83.7309,276.383,0.00034082,5.14e-05,0.0,0 STARLINK-4642,1 53720U 22107W   23259.49670444  .00005140  00000-0  34082-3 0  9998,2 53720  53.2191 357.4458 0001292  83.7309 276.3830 15.08837793 57765,6917.887,95.438,540.646,538.858,0.0
53720.0,STARLINK-4642,PAYLOAD,2023-09-17 11:46:01,15.08850339,0.0001377,53.2189,352.9864,81.686,278.4288,7.3073e-05,8.76e-06,0.0,0 STARLINK-4642,1 53720U 22107W   23260.49029649  .00000876  00000-0  73073-4 0  9990,2 53720  53.2189 352.9864 0001377  81.6860 278.4288 15.08850339 57914,6917.849,95.437,540.666,538.761,0.0
53720.0,STARLINK-4642,PAYLOAD,2023-09-18 10:01:26,15.08840242,0.0001497,53.2208,348.8242,96.3328,263.7835,4.7321e-05,4.65e-06,0.0,0 STARLINK-4642,1 53720U 22107W   23261.41766319  .00000465  00000-0  47321-4 0  9996,2 53720  53.2208 348.8242 0001497  96.3328 263.7835 15.08840242 57596,6917.88,95.438,540.78,538.709,0.0
53720.0,STARLINK-4642,PAYLOAD,2023-09-18 11:36:49,15.08841016,0.0001516,53.2209,348.5269,96.4656,263.6508,5.1279e-05,5.28e-06,0.0,0 STARLINK-4642,1 53720U 22107W   23261.48390247  .00000528  00000-0  51279-4 0  9993,2 53720  53.2209 348.5269 0001516  96.4656 263.6508 15.08841016 58069,6917.877,95.437,540.791,538.694,0.0
53720.0,STARLINK-4642,PAYLOAD,2023-09-19 09:52:12,15.08854203,0.0001509,53.2193,344.3641,95.4629,264.6536,0.00018027,2.583e-05,0.0,0 STARLINK-4642,1 53720U 22107W   23262.41125037  .00002583  00000-0  18027-3 0  9996,2 53720  53.2193 344.3641 0001509  95.4629 264.6536 15.08854203 57748,6917.837,95.437,540.746,538.658,0.0
53720.0,STARLINK-4642,PAYLOAD,2023-09-19 14:38:20,15.08866547,0.0001368,53.218,343.4714,99.6723,260.4424,0.00035711,5.404e-05,0.0,0 STARLINK-4642,1 53720U 22107W   23262.60996085  .00005404  00000-0  35711-3 0  9990,2 53720  53.2180 343.4714 0001368  99.6723 260.4424 15.08866547 57776,6917.799,95.436,540.611,538.718,0.0
53720.0,STARLINK-4642,PAYLOAD,2023-09-20 12:53:46,15.08823203,0.0001397,53.2177,339.3083,70.981,289.1334,-0.00021103,-3.643e-05,0.0,0 STARLINK-4642,1 53720U 22107W   23263.53734751 -.00003643  00000-0 -21103-3 0  9998,2 53720  53.2177 339.3083 0001397  70.9810 289.1334 15.08823203 57912,6917.932,95.439,540.763,538.83,0.0
53720.0,STARLINK-4642,PAYLOAD,2023-09-21 09:33:47,15.08837181,0.0001509,53.2174,335.4437,61.6093,298.5051,0.00038329,5.817e-05,0.0,0 STARLINK-4642,1 53720U 22107W   23264.39847123  .00005817  00000-0  38329-3 0  9992,2 53720  53.2174 335.4437 0001509  61.6093 298.5051 15.08837181 58049,6917.889,95.438,540.798,538.71,0.0
53720.0,STARLINK-4642,PAYLOAD,2023-09-21 11:09:10,15.08843993,0.0001491,53.2178,335.1438,65.6427,294.472,0.00053965,8.312e-05,0.0,0 STARLINK-4642,1 53720U 22107W   23264.46470931  .00008312  00000-0  53965-3 0  9995,2 53720  53.2178 335.1438 0001491  65.6427 294.4720 15.08843993 58514,6917.868,95.437,540.765,538.702,0.0
53720.0,STARLINK-4642,PAYLOAD,2023-09-22 10:59:57,15.08857086,0.0001676,53.2173,330.6853,62.5712,297.545,0.00060033,9.284e-05,0.0,0 STARLINK-4642,1 53720U 22107W   23265.45830765  .00009284  00000-0  60033-3 0  9993,2 53720  53.2173 330.6853 0001676  62.5712 297.5450 15.08857086 58206,6917.828,95.436,540.853,538.534,0.0
53720.0,STARLINK-4642,PAYLOAD,2023-09-23 10:50:44,15.08850125,0.000158,53.2171,326.2241,71.1992,288.9171,0.00013339,1.836e-05,0.0,0 STARLINK-4642,1 53720U 22107W   23266.45190370  .00001836  00000-0  13339-3 0  9997,2 53720  53.2171 326.2241 0001580  71.1992 288.9171 15.08850125 58353,6917.849,95.437,540.807,538.621,0.0
53720.0,STARLINK-4642,PAYLOAD,2023-09-23 23:33:49,15.08841875,0.0001597,53.2173,323.846,83.9969,276.1205,3.8744e-05,3.29e-06,0.0,0 STARLINK-4642,1 53720U 22107W   23266.98182593  .00000329  00000-0  38744-4 0  9997,2 53720  53.2173 323.8460 0001597  83.9969 276.1205 15.08841875 58432,6917.875,95.437,540.844,538.635,0.0
53720.0,STARLINK-4642,PAYLOAD,2023-09-24 13:52:17,15.08846296,0.0001428,53.216,321.1652,75.4631,284.6519,4.8121e-06,-2.11e-06,0.0,0 STARLINK-4642,1 53720U 22107W   23267.57798150 -.00000211  00000-0  48121-5 0  9997,2 53720  53.2160 321.1652 0001428  75.4631 284.6519 15.08846296 58981,6917.861,95.437,540.714,538.738,0.0
53720.0,STARLINK-4642,PAYLOAD,2023-09-25 10:32:18,15.0884933,0.0001547,53.2171,317.3038,88.2152,271.9018,0.00019858,2.875e-05,0.0,0 STARLINK-4642,1 53720U 22107W   23268.43910191  .00002875  00000-0  19858-3 0  9994,2 53720  53.2171 317.3038 0001547  88.2152 271.9018 15.08849330 58659,6917.852,95.437,540.787,538.647,0.0
53720.0,STARLINK-4642,PAYLOAD,2023-09-25 23:15:23,15.08840714,0.0001714,53.2179,314.9282,98.2456,261.873,0.0001015,1.328e-05,0.0,0 STARLINK-4642,1 53720U 22107W   23268.96902661  .00001328  00000-0  10150-3 0  9993,2 53720  53.2179 314.9282 0001714  98.2456 261.8730 15.08840714 58730,6917.878,95.438,540.929,538.557,0.0
53720.0,STARLINK-4642,PAYLOAD,2023-09-26 11:58:28,15.08845619,0.0001861,53.2184,312.5508,110.204,249.9152,0.00012007,1.624e-05,0.0,0 STARLINK-4642,1 53720U 22107W   23269.49894340  .00001624  00000-0  12007-3 0  9998,2 53720  53.2184 312.5508 0001861 110.2040 249.9152 15.08845619 59272,6917.863,95.437,541.016,538.441,0.0
53720.0,STARLINK-4642,PAYLOAD,2023-09-27 08:38:29,15.08834832,0.000188,53.2179,308.6845,109.3428,250.7768,-3.3468e-06,-3.41e-06,0.0,0 STARLINK-4642,1 53720U 22107W   23270.36006883 -.00000341  00000-0 -33468-5 0  9996,2 53720  53.2179 308.6845 0001880 109.3428 250.7768 15.08834832 58947,6917.896,95.438,541.062,538.461,0.0
